SL-14 R/B               
1 21423U 91042B   26018.65284700  .00000360  00000+0  42559-4 0  9994
2 21423  82.4925 267.1129 0018237  48.8697 311.4088 14.81776585845661
ERS-1                   
1 21574U 91050A   26018.64880373  .00000304  00000+0  11216-3 0  9990
2 21574  98.7896  35.6263 0031787 352.6994   7.3726 14.39398504808532
ARIANE 40 R/B           
1 21610U 91050F   26018.40259456  .00000253  00000+0  88294-4 0  9991
2 21610  98.2111  72.5011 0002515 206.3254 153.7810 14.42846179811747
INTERCOSMOS 25          
1 21819U 91086A   26018.62345973  .00000401  00000+0  78229-4 0  9997
2 21819  82.6088 340.2658 1486050 224.8332 122.2897 12.11859133490627
SL-8 R/B                
1 21876U 92008B   26018.56975500  .00000081  00000+0  67846-4 0  9990
2 21876  82.9290 305.0565 0033339 275.2315 258.3262 13.75966663702522
SL-8 R/B                
1 21938U 92020B   26018.57576414  .00000178  00000+0  16828-3 0  9995
2 21938  82.9298 190.9624 0030204  78.3564 347.8190 13.75539084694248
USA 81                  
1 21949U 92023A   26018.64031733  .00000174  00000+0  57204-4 0  9998
2 21949  85.0106 160.2964 0001857 117.2606 242.8776 14.32343396 87626
COSMOS 2219             
1 22219U 92076A   26018.65032448 -.00000098  00000+0 -26753-4 0  9994
2 22219  71.0617 122.6771 0020795 276.3496  83.5258 14.14081260711306
SL-16 R/B               
1 22220U 92076B   26018.52195641 -.00000036  00000+0  57117-5 0  9997
2 22220  71.0012 294.0517 0012750 182.5203 350.5483 14.16850352714729
COSMOS 2221             
1 22236U 92080A   26018.34162882  .00002027  00000+0  17841-3 0  9999
2 22236  82.5059 327.2887 0014907   8.9694 351.1791 14.95940542773265
SL-16 R/B               
1 22285U 92093B   26018.63425786  .00000292  00000+0  17369-3 0  9991
2 22285  71.0223 109.3489 0003978 351.7192   8.3865 14.15439323706070
COSMOS 2228             
1 22286U 92094A   26018.59139448  .00001795  00000+0  15348-3 0  9999
2 22286  82.5188 285.2744 0019477 108.2359 252.0986 14.96923268768566
