CCSDS_OMM_VERS = 2.0
CREATION_DATE  = 
ORIGINATOR     = 

OBJECT_NAME    = SL-14 R/B
OBJECT_ID      = 1991-042B
CENTER_NAME    = EARTH
REF_FRAME      = TEME
TIME_SYSTEM    = UTC
MEAN_ELEMENT_THEORY = SGP/SGP4

EPOCH          = 2026-01-18T15:40:05.980800
MEAN_MOTION    = 14.81776585
ECCENTRICITY   = .00182375
INCLINATION    = 82.4925
RA_OF_ASC_NODE = 267.1129
ARG_OF_PERICENTER = 48.8697
MEAN_ANOMALY   = 311.4088

EPHEMERIS_TYPE = 0
CLASSIFICATION_TYPE = U
NORAD_CAT_ID   = 21423
ELEMENT_SET_NO = 999
REV_AT_EPOCH   = 84566
BSTAR          = .4255909E-4
MEAN_MOTION_DOT = .36E-5
MEAN_MOTION_DDOT = 0

CCSDS_OMM_VERS = 2.0
CREATION_DATE  = 
ORIGINATOR     = 

OBJECT_NAME    = ERS-1
OBJECT_ID      = 1991-050A
CENTER_NAME    = EARTH
REF_FRAME      = TEME
TIME_SYSTEM    = UTC
MEAN_ELEMENT_THEORY = SGP/SGP4

EPOCH          = 2026-01-18T15:34:16.642272
MEAN_MOTION    = 14.39398504
ECCENTRICITY   = .00317871
INCLINATION    = 98.7896
RA_OF_ASC_NODE = 35.6263
ARG_OF_PERICENTER = 352.6994
MEAN_ANOMALY   = 7.3726

EPHEMERIS_TYPE = 0
CLASSIFICATION_TYPE = U
NORAD_CAT_ID   = 21574
ELEMENT_SET_NO = 999
REV_AT_EPOCH   = 80853
BSTAR          = .11216222E-3
MEAN_MOTION_DOT = .304E-5
MEAN_MOTION_DDOT = 0

CCSDS_OMM_VERS = 2.0
CREATION_DATE  = 
ORIGINATOR     = 

OBJECT_NAME    = ARIANE 40 R/B
OBJECT_ID      = 1991-050F
CENTER_NAME    = EARTH
REF_FRAME      = TEME
TIME_SYSTEM    = UTC
MEAN_ELEMENT_THEORY = SGP/SGP4

EPOCH          = 2026-01-18T09:39:44.169984
MEAN_MOTION    = 14.42846179
ECCENTRICITY   = .00025153
INCLINATION    = 98.2111
RA_OF_ASC_NODE = 72.5011
ARG_OF_PERICENTER = 206.3254
MEAN_ANOMALY   = 153.7810

EPHEMERIS_TYPE = 0
CLASSIFICATION_TYPE = U
NORAD_CAT_ID   = 21610
ELEMENT_SET_NO = 999
REV_AT_EPOCH   = 81174
BSTAR          = .88294087E-4
MEAN_MOTION_DOT = .253E-5
MEAN_MOTION_DDOT = 0

CCSDS_OMM_VERS = 2.0
CREATION_DATE  = 
ORIGINATOR     = 

OBJECT_NAME    = INTERCOSMOS 25
OBJECT_ID      = 1991-086A
CENTER_NAME    = EARTH
REF_FRAME      = TEME
TIME_SYSTEM    = UTC
MEAN_ELEMENT_THEORY = SGP/SGP4

EPOCH          = 2026-01-18T14:57:46.920672
MEAN_MOTION    = 12.11859133
ECCENTRICITY   = .14860501
INCLINATION    = 82.6088
RA_OF_ASC_NODE = 340.2658
ARG_OF_PERICENTER = 224.8332
MEAN_ANOMALY   = 122.2897

EPHEMERIS_TYPE = 0
CLASSIFICATION_TYPE = U
NORAD_CAT_ID   = 21819
ELEMENT_SET_NO = 999
REV_AT_EPOCH   = 49062
BSTAR          = .78229275E-4
MEAN_MOTION_DOT = .401E-5
MEAN_MOTION_DDOT = 0

CCSDS_OMM_VERS = 2.0
CREATION_DATE  = 
ORIGINATOR     = 

OBJECT_NAME    = SL-8 R/B
OBJECT_ID      = 1992-008B
CENTER_NAME    = EARTH
REF_FRAME      = TEME
TIME_SYSTEM    = UTC
MEAN_ELEMENT_THEORY = SGP/SGP4

EPOCH          = 2026-01-18T13:40:26.832000
MEAN_MOTION    = 13.75966663
ECCENTRICITY   = .00333395
INCLINATION    = 82.9290
RA_OF_ASC_NODE = 305.0565
ARG_OF_PERICENTER = 275.2315
MEAN_ANOMALY   = 258.3262

EPHEMERIS_TYPE = 0
CLASSIFICATION_TYPE = U
NORAD_CAT_ID   = 21876
ELEMENT_SET_NO = 999
REV_AT_EPOCH   = 70252
BSTAR          = .6784591E-4
MEAN_MOTION_DOT = .81E-6
MEAN_MOTION_DDOT = 0

CCSDS_OMM_VERS = 2.0
CREATION_DATE  = 
ORIGINATOR     = 

OBJECT_NAME    = SL-8 R/B
OBJECT_ID      = 1992-020B
CENTER_NAME    = EARTH
REF_FRAME      = TEME
TIME_SYSTEM    = UTC
MEAN_ELEMENT_THEORY = SGP/SGP4

EPOCH          = 2026-01-18T13:49:06.021696
MEAN_MOTION    = 13.75539084
ECCENTRICITY   = .00302043
INCLINATION    = 82.9298
RA_OF_ASC_NODE = 190.9624
ARG_OF_PERICENTER = 78.3564
MEAN_ANOMALY   = 347.8190

EPHEMERIS_TYPE = 0
CLASSIFICATION_TYPE = U
NORAD_CAT_ID   = 21938
ELEMENT_SET_NO = 999
REV_AT_EPOCH   = 69424
BSTAR          = .16828067E-3
MEAN_MOTION_DOT = .178E-5
MEAN_MOTION_DDOT = 0

CCSDS_OMM_VERS = 2.0
CREATION_DATE  = 
ORIGINATOR     = 

OBJECT_NAME    = USA 81
OBJECT_ID      = 1992-023A
CENTER_NAME    = EARTH
REF_FRAME      = TEME
TIME_SYSTEM    = UTC
MEAN_ELEMENT_THEORY = SGP/SGP4

EPOCH          = 2026-01-18T15:22:03.417312
MEAN_MOTION    = 14.32343396
ECCENTRICITY   = .00018576
INCLINATION    = 85.0106
RA_OF_ASC_NODE = 160.2964
ARG_OF_PERICENTER = 117.2606
MEAN_ANOMALY   = 242.8776

EPHEMERIS_TYPE = 0
CLASSIFICATION_TYPE = U
NORAD_CAT_ID   = 21949
ELEMENT_SET_NO = 999
REV_AT_EPOCH   = 8762
BSTAR          = .57203725E-4
MEAN_MOTION_DOT = .174E-5
MEAN_MOTION_DDOT = 0

CCSDS_OMM_VERS = 2.0
CREATION_DATE  = 
ORIGINATOR     = 

OBJECT_NAME    = COSMOS 2219
OBJECT_ID      = 1992-076A
CENTER_NAME    = EARTH
REF_FRAME      = TEME
TIME_SYSTEM    = UTC
MEAN_ELEMENT_THEORY = SGP/SGP4

EPOCH          = 2026-01-18T15:36:28.035072
MEAN_MOTION    = 14.14081260
ECCENTRICITY   = .00207954
INCLINATION    = 71.0617
RA_OF_ASC_NODE = 122.6771
ARG_OF_PERICENTER = 276.3496
MEAN_ANOMALY   = 83.5258

EPHEMERIS_TYPE = 0
CLASSIFICATION_TYPE = U
NORAD_CAT_ID   = 22219
ELEMENT_SET_NO = 999
REV_AT_EPOCH   = 71130
BSTAR          = -.2675326E-4
MEAN_MOTION_DOT = -.98E-6
MEAN_MOTION_DDOT = 0

CCSDS_OMM_VERS = 2.0
CREATION_DATE  = 
ORIGINATOR     = 

OBJECT_NAME    = SL-16 R/B
OBJECT_ID      = 1992-076B
CENTER_NAME    = EARTH
REF_FRAME      = TEME
TIME_SYSTEM    = UTC
MEAN_ELEMENT_THEORY = SGP/SGP4

EPOCH          = 2026-01-18T12:31:37.033824
MEAN_MOTION    = 14.16850352
ECCENTRICITY   = .00127502
INCLINATION    = 71.0012
RA_OF_ASC_NODE = 294.0517
ARG_OF_PERICENTER = 182.5203
MEAN_ANOMALY   = 350.5483

EPHEMERIS_TYPE = 0
CLASSIFICATION_TYPE = U
NORAD_CAT_ID   = 22220
ELEMENT_SET_NO = 999
REV_AT_EPOCH   = 71472
BSTAR          = .5711671E-5
MEAN_MOTION_DOT = -.36E-6
MEAN_MOTION_DDOT = 0

CCSDS_OMM_VERS = 2.0
CREATION_DATE  = 
ORIGINATOR     = 

OBJECT_NAME    = COSMOS 2221
OBJECT_ID      = 1992-080A
CENTER_NAME    = EARTH
REF_FRAME      = TEME
TIME_SYSTEM    = UTC
MEAN_ELEMENT_THEORY = SGP/SGP4

EPOCH          = 2026-01-18T08:11:56.730048
MEAN_MOTION    = 14.95940542
ECCENTRICITY   = .00149078
INCLINATION    = 82.5059
RA_OF_ASC_NODE = 327.2887
ARG_OF_PERICENTER = 8.9694
MEAN_ANOMALY   = 351.1791

EPHEMERIS_TYPE = 0
CLASSIFICATION_TYPE = U
NORAD_CAT_ID   = 22236
ELEMENT_SET_NO = 999
REV_AT_EPOCH   = 77326
BSTAR          = .1784129E-3
MEAN_MOTION_DOT = .2027E-4
MEAN_MOTION_DDOT = 0

CCSDS_OMM_VERS = 2.0
CREATION_DATE  = 
ORIGINATOR     = 

OBJECT_NAME    = SL-16 R/B
OBJECT_ID      = 1992-093B
CENTER_NAME    = EARTH
REF_FRAME      = TEME
TIME_SYSTEM    = UTC
MEAN_ELEMENT_THEORY = SGP/SGP4

EPOCH          = 2026-01-18T15:13:19.879104
MEAN_MOTION    = 14.15439323
ECCENTRICITY   = .00039787
INCLINATION    = 71.0223
RA_OF_ASC_NODE = 109.3489
ARG_OF_PERICENTER = 351.7192
MEAN_ANOMALY   = 8.3865

EPHEMERIS_TYPE = 0
CLASSIFICATION_TYPE = U
NORAD_CAT_ID   = 22285
ELEMENT_SET_NO = 999
REV_AT_EPOCH   = 70607
BSTAR          = .17368505E-3
MEAN_MOTION_DOT = .292E-5
MEAN_MOTION_DDOT = 0

CCSDS_OMM_VERS = 2.0
CREATION_DATE  = 
ORIGINATOR     = 

OBJECT_NAME    = COSMOS 2228
OBJECT_ID      = 1992-094A
CENTER_NAME    = EARTH
REF_FRAME      = TEME
TIME_SYSTEM    = UTC
MEAN_ELEMENT_THEORY = SGP/SGP4

EPOCH          = 2026-01-18T14:11:36.483072
MEAN_MOTION    = 14.96923268
ECCENTRICITY   = .00194771
INCLINATION    = 82.5188
RA_OF_ASC_NODE = 285.2744
ARG_OF_PERICENTER = 108.2359
MEAN_ANOMALY   = 252.0986

EPHEMERIS_TYPE = 0
CLASSIFICATION_TYPE = U
NORAD_CAT_ID   = 22286
ELEMENT_SET_NO = 999
REV_AT_EPOCH   = 76856
BSTAR          = .15348364E-3
MEAN_MOTION_DOT = .1795E-4
MEAN_MOTION_DDOT = 0

